{
  "norad_id": 57475,
  "name": "STARLINK-30155",
  "history": [
    {
      "epoch": "2026-03-28T16:02:07.894752",
      "apogee_km": 484.25154092957655,
      "perigee_km": 481.8487531906758,
      "latitude_deg": 23.026832728463052,
      "longitude_deg": -8.357894720043987,
      "semi_major_axis_km": 6861.187147060125,
      "eccentricity": 0.0001751,
      "inclination_deg": 43.0003,
      "raan_deg": 228.5689,
      "arg_perigee_deg": 266.9924,
      "mean_anomaly_deg": 93.0727,
      "mean_motion_rev_day": 15.27579649
    }
  ]
}